[{"OBJECT_NAME":"FLOCK 4G-3","OBJECT_ID":"2025-009AG","EPOCH":"2026-03-09T19:14:30.392160","MEAN_MOTION":15.2717931,"ECCENTRICITY":0.00013196,"INCLINATION":97.4062,"RA_OF_ASC_NODE":151.4068,"ARG_OF_PERICENTER":293.2042,"MEAN_ANOMALY":66.9058,"EPHEMERIS_TYPE":0,"CLASSIFICATION_TYPE":"U","NORAD_CAT_ID":62639,"ELEMENT_SET_NO":999,"REV_AT_EPOCH":6372,"BSTAR":0.0004338875,"MEAN_MOTION_DOT":0.00011494,"MEAN_MOTION_DDOT":0},{"OBJECT_NAME":"STARLINK-36126","OBJECT_ID":"2025-281U","EPOCH":"2026-03-08T04:53:44.439648","MEAN_MOTION":15.27614315,"ECCENTRICITY":0.00011424,"INCLINATION":43,"RA_OF_ASC_NODE":352.2644,"ARG_OF_PERICENTER":275.0337,"MEAN_ANOMALY":85.0384,"EPHEMERIS_TYPE":0,"CLASSIFICATION_TYPE":"U","NORAD_CAT_ID":66866,"ELEMENT_SET_NO":999,"REV_AT_EPOCH":1594,"BSTAR":0.00079339144,"MEAN_MOTION_DOT":0.00021657,"MEAN_MOTION_DDOT":0}]
